ONEWEB-0229             
1 48779U 21045N   24166.70572653 -.00000027  00000+0 -10604-3 0  9995
2 48779  87.9041  44.9679 0002004  84.5894 275.5464 13.15549270148103
ONEWEB-0228             
1 48780U 21045P   24166.72078275  .00000092  00000+0  21151-3 0  9999
2 48780  87.9037  44.9403 0001947  81.9011 278.2341 13.15546613148025
ONEWEB-0232             
1 48781U 21045Q   24166.71365461  .00000056  00000+0  11475-3 0  9993
2 48781  87.9033  44.9634 0001993  82.3630 277.7727 13.15548628148346
ONEWEB-0231             
1 48782U 21045R   24166.91964777 -.00000079  00000+0 -24294-3 0  9991
2 48782  87.9050  44.9519 0002142  80.8794 279.2579 13.15548896148067
ONEWEB-0234             
1 48783U 21045S   24166.71128025  .00000005  00000+0 -21161-4 0  9997
2 48783  87.9041  44.9526 0001280  33.7405 326.3807 13.15548697148173
ONEWEB-0238             
1 48784U 21045T   24166.89350263  .00000055  00000+0  11299-3 0  9992
2 48784  87.9041  44.9342 0001707  77.9807 282.1514 13.15548181148093
ONEWEB-0240             
1 48785U 21045U   24166.90301252 -.00000003  00000+0 -42406-4 0  9999
2 48785  87.9041  44.8997 0002182  73.3017 286.8353 13.15547959148128
ONEWEB-0246             
1 48786U 21045V   24166.89746665  .00000107  00000+0  25083-3 0  9993
2 48786  87.9044  44.9053 0001981  84.5321 275.6036 13.15548553147993
